IRIDIUM 119             
1 42959U 17061E   23286.46044387  .00000699  00000+0  24264-3 0  9995
2 42959  86.3938  73.8453 0001849  81.6815 278.4590 14.34215185314679
IRIDIUM 107             
1 42960U 17061F   23286.47947375  .00000884  00000+0  30873-3 0  9996
2 42960  86.3937  73.8528 0001787  89.2188 270.9212 14.34219063314690
IRIDIUM 132             
1 42961U 17061G   23286.48581569  .00000691  00000+0  23979-3 0  9992
2 42961  86.3935  73.8365 0001938  88.4804 271.6613 14.34216866314682
IRIDIUM 136             
1 42962U 17061H   23286.51752340  .00000769  00000+0  26749-3 0  9998
2 42962  86.3937  73.8251 0002135  85.5558 274.5882 14.34218033314704
IRIDIUM 139             
1 42963U 17061J   23286.45410356 -.00000078  00000+0 -34853-4 0  9991
2 42963  86.3937  73.8986 0001656  89.5332 270.6054 14.34215237314702
IRIDIUM 125             
1 42964U 17061K   23286.51118337  .00000800  00000+0  27870-3 0  9994
2 42964  86.3940  73.9175 0001897  84.9986 275.1426 14.34219956314726
IRIDIUM 135             
1 43070U 17083A   23286.48531158  .00000560  00000+0  19285-3 0  9997
2 43070  86.4031  10.6297 0002206 102.1272 258.0171 14.34214495304017
IRIDIUM 138             
1 43071U 17083B   23286.78975028  .00000756  00000+0  26290-3 0  9990
2 43071  86.4020  10.2506 0001999  87.0955 273.0470 14.34214915304041
